CTC1_L_00444001-01
1 27204U 24040GP  26037.47806713  .00000000  00000+0  00000-0 0  9998
2 27204  65.0000   0.0000 0000000   0.0000   0.0000 12.41559219    18
CTC1_L_00444001-02
1 27205U 22094AH  26037.47806713  .00000000  00000+0  00000-0 0  9996
2 27205  65.0000   0.0000 0000000   0.0000  90.0000 12.41559219    18
CTC1_L_00444001-03
1 27206U 23616TY  26037.47806713  .00000000  00000+0  00000-0 0  9998
2 27206  65.0000   0.0000 0000000   0.0000 180.0000 12.41559219    19
CTC1_L_00444001-04
1 27207U 25101GO  26037.47806713  .00000000  00000+0  00000-0 0  9990
2 27207  65.0000   0.0000 0000000   0.0000 270.0000 12.41559219    10
CTC1_L_00444002-01
1 27208U 26859LS  26037.47806713  .00000000  00000+0  00000-0 0  9992
2 27208  65.0000  12.0000 0000000   0.0000  12.0000 12.41559219    18
CTC1_L_00444002-02
1 27209U 26533Z   26037.47806713  .00000000  00000+0  00000-0 0  9992
2 27209  65.0000  12.0000 0000000   0.0000 102.0000 12.41559219    19
CTC1_L_00444002-03
1 27210U 22345KU  26037.47806713  .00000000  00000+0  00000-0 0  9991
2 27210  65.0000  12.0000 0000000   0.0000 192.0000 12.41559219    10
CTC1_L_00444002-04
1 27211U 26327MD  26037.47806713  .00000000  00000+0  00000-0 0  9996
2 27211  65.0000  12.0000 0000000   0.0000 282.0000 12.41559219    11
CTC1_L_00444003-01
1 27212U 26224FN  26037.47806713  .00000000  00000+0  00000-0 0  9993
2 27212  65.0000  24.0000 0000000   0.0000  24.0000 12.41559219    19
CTC1_L_00444003-02
1 27213U 25041QG  26037.47806713  .00000000  00000+0  00000-0 0  9990
2 27213  65.0000  24.0000 0000000   0.0000 114.0000 12.41559219    10
CTC1_L_00444003-03
1 27214U 25184ZR  26037.47806713  .00000000  00000+0  00000-0 0  9999
2 27214  65.0000  24.0000 0000000   0.0000 204.0000 12.41559219    11
CTC1_L_00444003-04
1 27215U 25040LZ  26037.47806713  .00000000  00000+0  00000-0 0  9991
2 27215  65.0000  24.0000 0000000   0.0000 294.0000 12.41559219    11
CTC1_L_00444004-01
1 27216U 26209KK  26037.47806713  .00000000  00000+0  00000-0 0  9990
2 27216  65.0000  36.0000 0000000   0.0000  36.0000 12.41559219    19
CTC1_L_00444004-02
1 27217U 26943IW  26037.47806713  .00000000  00000+0  00000-0 0  9996
2 27217  65.0000  36.0000 0000000   0.0000 126.0000 12.41559219    10
CTC1_L_00444004-03
1 27218U 23231TB  26037.47806713  .00000000  00000+0  00000-0 0  9994
2 27218  65.0000  36.0000 0000000   0.0000 216.0000 12.41559219    11
CTC1_L_00444004-04
1 27219U 22695DJ  26037.47806713  .00000000  00000+0  00000-0 0  9998
2 27219  65.0000  36.0000 0000000   0.0000 306.0000 12.41559219    12
CTC1_L_00444005-01
1 27220U 22798FH  26037.47806713  .00000000  00000+0  00000-0 0  9994
2 27220  65.0000  48.0000 0000000   0.0000  48.0000 12.41559219    10
CTC1_L_00444005-02
1 27221U 23098RA  26037.47806713  .00000000  00000+0  00000-0 0  9999
2 27221  65.0000  48.0000 0000000   0.0000 138.0000 12.41559219    11
CTC1_L_00444005-03
1 27222U 26862HD  26037.47806713  .00000000  00000+0  00000-0 0  9992
2 27222  65.0000  48.0000 0000000   0.0000 228.0000 12.41559219    12
CTC1_L_00444005-04
1 27223U 26728DW  26037.47806713  .00000000  00000+0  00000-0 0  9994
2 27223  65.0000  48.0000 0000000   0.0000 318.0000 12.41559219    13
CTC1_L_00444006-01
1 27224U 22207KD  26037.47806713  .00000000  00000+0  00000-0 0  9993
2 27224  65.0000  60.0000 0000000   0.0000  60.0000 12.41559219    12
CTC1_L_00444006-02
1 27225U 26084GY  26037.47806713  .00000000  00000+0  00000-0 0  9991
2 27225  65.0000  60.0000 0000000   0.0000 150.0000 12.41559219    13
CTC1_L_00444006-03
1 27226U 23940SS  26037.47806713  .00000000  00000+0  00000-0 0  9990
2 27226  65.0000  60.0000 0000000   0.0000 240.0000 12.41559219    14
CTC1_L_00444006-04
1 27227U 26868TM  26037.47806713  .00000000  00000+0  00000-0 0  9993
2 27227  65.0000  60.0000 0000000   0.0000 330.0000 12.41559219    15
CTC1_L_00444007-01
1 27228U 23902JO  26037.47806713  .00000000  00000+0  00000-0 0  9990
2 27228  65.0000  72.0000 0000000   0.0000  72.0000 12.41559219    12
CTC1_L_00444007-02
1 27229U 23712FT  26037.47806713  .00000000  00000+0  00000-0 0  9990
2 27229  65.0000  72.0000 0000000   0.0000 162.0000 12.41559219    13
CTC1_L_00444007-03
1 27230U 23654MY  26037.47806713  .00000000  00000+0  00000-0 0  9997
2 27230  65.0000  72.0000 0000000   0.0000 252.0000 12.41559219    15
CTC1_L_00444007-04
1 27231U 24442MC  26037.47806713  .00000000  00000+0  00000-0 0  9994
2 27231  65.0000  72.0000 0000000   0.0000 342.0000 12.41559219    16
CTC1_L_00444008-01
1 27232U 22805LE  26037.47806713  .00000000  00000+0  00000-0 0  9996
2 27232  65.0000  84.0000 0000000   0.0000  84.0000 12.41559219    13
CTC1_L_00444008-02
1 27233U 24419VZ  26037.47806713  .00000000  00000+0  00000-0 0  9990
2 27233  65.0000  84.0000 0000000   0.0000 174.0000 12.41559219    14
CTC1_L_00444008-03
1 27234U 25128HH  26037.47806713  .00000000  00000+0  00000-0 0  9999
2 27234  65.0000  84.0000 0000000   0.0000 264.0000 12.41559219    15
CTC1_L_00444008-04
1 27235U 23394GH  26037.47806713  .00000000  00000+0  00000-0 0  9993
2 27235  65.0000  84.0000 0000000   0.0000 354.0000 12.41559219    16
CTC1_L_00444009-01
1 27236U 26945YH  26037.47806713  .00000000  00000+0  00000-0 0  9999
2 27236  65.0000  96.0000 0000000   0.0000  96.0000 12.41559219    13
CTC1_L_00444009-02
1 27237U 22692BR  26037.47806713  .00000000  00000+0  00000-0 0  9995
2 27237  65.0000  96.0000 0000000   0.0000 186.0000 12.41559219    14
CTC1_L_00444009-03
1 27238U 22984LG  26037.47806713  .00000000  00000+0  00000-0 0  9990
2 27238  65.0000  96.0000 0000000   0.0000 276.0000 12.41559219    15
CTC1_L_00444009-04
1 27239U 24957AC  26037.47806713  .00000000  00000+0  00000-0 0  9993
2 27239  65.0000  96.0000 0000000   0.0000   6.0000 12.41559219    17
CTC1_L_00444010-01
1 27240U 25853PN  26037.47806713  .00000000  00000+0  00000-0 0  9991
2 27240  65.0000 108.0000 0000000   0.0000 108.0000 12.41559219    16
CTC1_L_00444010-02
1 27241U 25777LA  26037.47806713  .00000000  00000+0  00000-0 0  9997
2 27241  65.0000 108.0000 0000000   0.0000 198.0000 12.41559219    16
CTC1_L_00444010-03
1 27242U 23284AB  26037.47806713  .00000000  00000+0  00000-0 0  9999
2 27242  65.0000 108.0000 0000000   0.0000 288.0000 12.41559219    17
CTC1_L_00444010-04
1 27243U 25206GU  26037.47806713  .00000000  00000+0  00000-0 0  9996
2 27243  65.0000 108.0000 0000000   0.0000  18.0000 12.41559219    19
CTC1_L_00444011-01
1 27244U 26154BB  26037.47806713  .00000000  00000+0  00000-0 0  9990
2 27244  65.0000 120.0000 0000000   0.0000 120.0000 12.41559219    18
CTC1_L_00444011-02
1 27245U 26889LD  26037.47806713  .00000000  00000+0  00000-0 0  9996
2 27245  65.0000 120.0000 0000000   0.0000 210.0000 12.41559219    19
CTC1_L_00444011-03
1 27246U 24191XT  26037.47806713  .00000000  00000+0  00000-0 0  9991
2 27246  65.0000 120.0000 0000000   0.0000 300.0000 12.41559219    10
CTC1_L_00444011-04
1 27247U 24277KU  26037.47806713  .00000000  00000+0  00000-0 0  9997
2 27247  65.0000 120.0000 0000000   0.0000  30.0000 12.41559219    11
CTC1_L_00444012-01
1 27248U 22268DA  26037.47806713  .00000000  00000+0  00000-0 0  9996
2 27248  65.0000 132.0000 0000000   0.0000 132.0000 12.41559219    18
CTC1_L_00444012-02
1 27249U 26012PI  26037.47806713  .00000000  00000+0  00000-0 0  9998
2 27249  65.0000 132.0000 0000000   0.0000 222.0000 12.41559219    19
CTC1_L_00444012-03
1 27250U 22951RK  26037.47806713  .00000000  00000+0  00000-0 0  9998
2 27250  65.0000 132.0000 0000000   0.0000 312.0000 12.41559219    11
CTC1_L_00444012-04
1 27251U 25123GD  26037.47806713  .00000000  00000+0  00000-0 0  9993
2 27251  65.0000 132.0000 0000000   0.0000  42.0000 12.41559219    12
CTC1_L_00444013-01
1 27252U 22146SG  26037.47806713  .00000000  00000+0  00000-0 0  9996
2 27252  65.0000 144.0000 0000000   0.0000 144.0000 12.41559219    19
CTC1_L_00444013-02
1 27253U 24202UQ  26037.47806713  .00000000  00000+0  00000-0 0  9992
2 27253  65.0000 144.0000 0000000   0.0000 234.0000 12.41559219    10
CTC1_L_00444013-03
1 27254U 23813ZW  26037.47806713  .00000000  00000+0  00000-0 0  9990
2 27254  65.0000 144.0000 0000000   0.0000 324.0000 12.41559219    11
CTC1_L_00444013-04
1 27255U 25240UT  26037.47806713  .00000000  00000+0  00000-0 0  9997
2 27255  65.0000 144.0000 0000000   0.0000  54.0000 12.41559219    12
CTC1_L_00444014-01
1 27256U 25584ER  26037.47806713  .00000000  00000+0  00000-0 0  9999
2 27256  65.0000 156.0000 0000000   0.0000 156.0000 12.41559219    19
CTC1_L_00444014-02
1 27257U 25066GA  26037.47806713  .00000000  00000+0  00000-0 0  9995
2 27257  65.0000 156.0000 0000000   0.0000 246.0000 12.41559219    10
CTC1_L_00444014-03
1 27258U 24774KI  26037.47806713  .00000000  00000+0  00000-0 0  9991
2 27258  65.0000 156.0000 0000000   0.0000 336.0000 12.41559219    11
CTC1_L_00444014-04
1 27259U 26403ZB  26037.47806713  .00000000  00000+0  00000-0 0  9993
2 27259  65.0000 156.0000 0000000   0.0000  66.0000 12.41559219    12
CTC1_L_00444015-01
1 27260U 22398IM  26037.47806713  .00000000  00000+0  00000-0 0  9994
2 27260  65.0000 168.0000 0000000   0.0000 168.0000 12.41559219    10
CTC1_L_00444015-02
1 27261U 25985DC  26037.47806713  .00000000  00000+0  00000-0 0  9990
2 27261  65.0000 168.0000 0000000   0.0000 258.0000 12.41559219    11
CTC1_L_00444015-03
1 27262U 22862SH  26037.47806713  .00000000  00000+0  00000-0 0  9992
2 27262  65.0000 168.0000 0000000   0.0000 348.0000 12.41559219    12
CTC1_L_00444015-04
1 27263U 25351FG  26037.47806713  .00000000  00000+0  00000-0 0  9999
2 27263  65.0000 168.0000 0000000   0.0000  78.0000 12.41559219    13
CTC1_L_00444016-01
1 27264U 24924XG  26037.47806713  .00000000  00000+0  00000-0 0  9995
2 27264  65.0000 180.0000 0000000   0.0000 180.0000 12.41559219    12
CTC1_L_00444016-02
1 27265U 22623TJ  26037.47806713  .00000000  00000+0  00000-0 0  9990
2 27265  65.0000 180.0000 0000000   0.0000 270.0000 12.41559219    13
